CTC2_L_00440001-01
1 10000U 23253GP  26075.70046296  .00000000  00000+0  00000-0 0  9999
2 10000  75.0000   0.0000 0000000   0.0000   0.0000 12.41559304    10
CTC2_L_00440001-02
1 10001U 24732T   26075.70046296  .00000000  00000+0  00000-0 0  9993
2 10001  75.0000   0.0000 0000000   0.0000  90.0000 12.41559304    10
CTC2_L_00440001-03
1 10002U 23114XP  26075.70046296  .00000000  00000+0  00000-0 0  9997
2 10002  75.0000   0.0000 0000000   0.0000 180.0000 12.41559304    11
CTC2_L_00440001-04
1 10003U 22062WF  26075.70046296  .00000000  00000+0  00000-0 0  9999
2 10003  75.0000   0.0000 0000000   0.0000 270.0000 12.41559304    12
CTC2_L_00440002-01
1 10004U 26355QG  26075.70046296  .00000000  00000+0  00000-0 0  9999
2 10004  75.0000  12.0000 0000000   0.0000  12.0000 12.41559304    10
CTC2_L_00440002-02
1 10005U 25591LQ  26075.70046296  .00000000  00000+0  00000-0 0  9991
2 10005  75.0000  12.0000 0000000   0.0000 102.0000 12.41559304    11
CTC2_L_00440002-03
1 10006U 25819TM  26075.70046296  .00000000  00000+0  00000-0 0  9995
2 10006  75.0000  12.0000 0000000   0.0000 192.0000 12.41559304    11
CTC2_L_00440002-04
1 10007U 24147LI  26075.70046296  .00000000  00000+0  00000-0 0  9999
2 10007  75.0000  12.0000 0000000   0.0000 282.0000 12.41559304    12
CTC2_L_00440003-01
1 10008U 24298DU  26075.70046296  .00000000  00000+0  00000-0 0  9997
2 10008  75.0000  24.0000 0000000   0.0000  24.0000 12.41559304    10
CTC2_L_00440003-02
1 10009U 26900JU  26075.70046296  .00000000  00000+0  00000-0 0  9990
2 10009  75.0000  24.0000 0000000   0.0000 114.0000 12.41559304    11
CTC2_L_00440003-03
1 10010U 24501ER  26075.70046296  .00000000  00000+0  00000-0 0  9997
2 10010  75.0000  24.0000 0000000   0.0000 204.0000 12.41559304    13
CTC2_L_00440003-04
1 10011U 22381KX  26075.70046296  .00000000  00000+0  00000-0 0  9992
2 10011  75.0000  24.0000 0000000   0.0000 294.0000 12.41559304    13
CTC2_L_00440004-01
1 10012U 23233XI  26075.70046296  .00000000  00000+0  00000-0 0  9990
2 10012  75.0000  36.0000 0000000   0.0000  36.0000 12.41559304    11
CTC2_L_00440004-02
1 10013U 25422HT  26075.70046296  .00000000  00000+0  00000-0 0  9993
2 10013  75.0000  36.0000 0000000   0.0000 126.0000 12.41559304    12
CTC2_L_00440004-03
1 10014U 22752XM  26075.70046296  .00000000  00000+0  00000-0 0  9997
2 10014  75.0000  36.0000 0000000   0.0000 216.0000 12.41559304    13
CTC2_L_00440004-04
1 10015U 24873FI  26075.70046296  .00000000  00000+0  00000-0 0  9994
2 10015  75.0000  36.0000 0000000   0.0000 306.0000 12.41559304    14
CTC2_L_00440005-01
1 10016U 25274YS  26075.70046296  .00000000  00000+0  00000-0 0  9991
2 10016  75.0000  48.0000 0000000   0.0000  48.0000 12.41559304    11
CTC2_L_00440005-02
1 10017U 25729MT  26075.70046296  .00000000  00000+0  00000-0 0  9997
2 10017  75.0000  48.0000 0000000   0.0000 138.0000 12.41559304    12
CTC2_L_00440005-03
1 10018U 25540LA  26075.70046296  .00000000  00000+0  00000-0 0  9999
2 10018  75.0000  48.0000 0000000   0.0000 228.0000 12.41559304    13
CTC2_L_00440005-04
1 10019U 22211HI  26075.70046296  .00000000  00000+0  00000-0 0  9992
2 10019  75.0000  48.0000 0000000   0.0000 318.0000 12.41559304    14
CTC2_L_00440006-01
1 10020U 25356YD  26075.70046296  .00000000  00000+0  00000-0 0  9997
2 10020  75.0000  60.0000 0000000   0.0000  60.0000 12.41559304    14
CTC2_L_00440006-02
1 10021U 24240WW  26075.70046296  .00000000  00000+0  00000-0 0  9999
2 10021  75.0000  60.0000 0000000   0.0000 150.0000 12.41559304    15
CTC2_L_00440006-03
1 10022U 22854XN  26075.70046296  .00000000  00000+0  00000-0 0  9999
2 10022  75.0000  60.0000 0000000   0.0000 240.0000 12.41559304    16
CTC2_L_00440006-04
1 10023U 25089CB  26075.70046296  .00000000  00000+0  00000-0 0  9993
2 10023  75.0000  60.0000 0000000   0.0000 330.0000 12.41559304    17
CTC2_L_00440007-01
1 10024U 22659GS  26075.70046296  .00000000  00000+0  00000-0 0  9994
2 10024  75.0000  72.0000 0000000   0.0000  72.0000 12.41559304    14
CTC2_L_00440007-02
1 10025U 24415VG  26075.70046296  .00000000  00000+0  00000-0 0  9997
2 10025  75.0000  72.0000 0000000   0.0000 162.0000 12.41559304    15
CTC2_L_00440007-03
1 10026U 25149CK  26075.70046296  .00000000  00000+0  00000-0 0  9993
2 10026  75.0000  72.0000 0000000   0.0000 252.0000 12.41559304    16
CTC2_L_00440007-04
1 10027U 23122GI  26075.70046296  .00000000  00000+0  00000-0 0  9993
2 10027  75.0000  72.0000 0000000   0.0000 342.0000 12.41559304    17
CTC2_L_00440008-01
1 10028U 25293NL  26075.70046296  .00000000  00000+0  00000-0 0  9995
2 10028  75.0000  84.0000 0000000   0.0000  84.0000 12.41559304    14
CTC2_L_00440008-02
1 10029U 25413JS  26075.70046296  .00000000  00000+0  00000-0 0  9990
2 10029  75.0000  84.0000 0000000   0.0000 174.0000 12.41559304    15
CTC2_L_00440008-03
1 10030U 23122BY  26075.70046296  .00000000  00000+0  00000-0 0  9997
2 10030  75.0000  84.0000 0000000   0.0000 264.0000 12.41559304    17
CTC2_L_00440008-04
1 10031U 23510QL  26075.70046296  .00000000  00000+0  00000-0 0  9999
2 10031  75.0000  84.0000 0000000   0.0000 354.0000 12.41559304    18
CTC2_L_00440009-01
1 10032U 23655FX  26075.70046296  .00000000  00000+0  00000-0 0  9990
2 10032  75.0000  96.0000 0000000   0.0000  96.0000 12.41559304    15
CTC2_L_00440009-02
1 10033U 23624KA  26075.70046296  .00000000  00000+0  00000-0 0  9997
2 10033  75.0000  96.0000 0000000   0.0000 186.0000 12.41559304    16
CTC2_L_00440009-03
1 10034U 23233FU  26075.70046296  .00000000  00000+0  00000-0 0  9994
2 10034  75.0000  96.0000 0000000   0.0000 276.0000 12.41559304    17
CTC2_L_00440009-04
1 10035U 25701BW  26075.70046296  .00000000  00000+0  00000-0 0  9997
2 10035  75.0000  96.0000 0000000   0.0000   6.0000 12.41559304    19
CTC2_L_00440010-01
1 10036U 23124BL  26075.70046296  .00000000  00000+0  00000-0 0  9995
2 10036  75.0000 108.0000 0000000   0.0000 108.0000 12.41559304    17
CTC2_L_00440010-02
1 10037U 22142RD  26075.70046296  .00000000  00000+0  00000-0 0  9995
2 10037  75.0000 108.0000 0000000   0.0000 198.0000 12.41559304    17
CTC2_L_00440010-03
1 10038U 24398WQ  26075.70046296  .00000000  00000+0  00000-0 0  9991
2 10038  75.0000 108.0000 0000000   0.0000 288.0000 12.41559304    18
CTC2_L_00440010-04
1 10039U 22508Z   26075.70046296  .00000000  00000+0  00000-0 0  9993
2 10039  75.0000 108.0000 0000000   0.0000  18.0000 12.41559304    10
CTC2_L_00440011-01
1 10040U 26035W   26075.70046296  .00000000  00000+0  00000-0 0  9994
2 10040  75.0000 120.0000 0000000   0.0000 120.0000 12.41559304    10
CTC2_L_00440011-02
1 10041U 23299ZJ  26075.70046296  .00000000  00000+0  00000-0 0  9994
2 10041  75.0000 120.0000 0000000   0.0000 210.0000 12.41559304    11
CTC2_L_00440011-03
1 10042U 26516JW  26075.70046296  .00000000  00000+0  00000-0 0  9990
2 10042  75.0000 120.0000 0000000   0.0000 300.0000 12.41559304    12
CTC2_L_00440011-04
1 10043U 22871DR  26075.70046296  .00000000  00000+0  00000-0 0  9991
2 10043  75.0000 120.0000 0000000   0.0000  30.0000 12.41559304    13
CTC2_L_00440012-01
1 10044U 23878LO  26075.70046296  .00000000  00000+0  00000-0 0  9990
2 10044  75.0000 132.0000 0000000   0.0000 132.0000 12.41559304    10
CTC2_L_00440012-02
1 10045U 25420FW  26075.70046296  .00000000  00000+0  00000-0 0  9996
2 10045  75.0000 132.0000 0000000   0.0000 222.0000 12.41559304    11
CTC2_L_00440012-03
1 10046U 24434IV  26075.70046296  .00000000  00000+0  00000-0 0  9991
2 10046  75.0000 132.0000 0000000   0.0000 312.0000 12.41559304    12
CTC2_L_00440012-04
1 10047U 23280CW  26075.70046296  .00000000  00000+0  00000-0 0  9990
2 10047  75.0000 132.0000 0000000   0.0000  42.0000 12.41559304    13
CTC2_L_00440013-01
1 10048U 23476CC  26075.70046296  .00000000  00000+0  00000-0 0  9998
2 10048  75.0000 144.0000 0000000   0.0000 144.0000 12.41559304    10
CTC2_L_00440013-02
1 10049U 25870UF  26075.70046296  .00000000  00000+0  00000-0 0  9999
2 10049  75.0000 144.0000 0000000   0.0000 234.0000 12.41559304    11
CTC2_L_00440013-03
1 10050U 22952SN  26075.70046296  .00000000  00000+0  00000-0 0  9999
2 10050  75.0000 144.0000 0000000   0.0000 324.0000 12.41559304    13
CTC2_L_00440013-04
1 10051U 26742FY  26075.70046296  .00000000  00000+0  00000-0 0  9991
2 10051  75.0000 144.0000 0000000   0.0000  54.0000 12.41559304    14
CTC2_L_00440014-01
1 10052U 26353RK  26075.70046296  .00000000  00000+0  00000-0 0  9990
2 10052  75.0000 156.0000 0000000   0.0000 156.0000 12.41559304    11
CTC2_L_00440014-02
1 10053U 23547AW  26075.70046296  .00000000  00000+0  00000-0 0  9993
2 10053  75.0000 156.0000 0000000   0.0000 246.0000 12.41559304    12
CTC2_L_00440014-03
1 10054U 26380PM  26075.70046296  .00000000  00000+0  00000-0 0  9992
2 10054  75.0000 156.0000 0000000   0.0000 336.0000 12.41559304    13
CTC2_L_00440014-04
1 10055U 22990UZ  26075.70046296  .00000000  00000+0  00000-0 0  9996
2 10055  75.0000 156.0000 0000000   0.0000  66.0000 12.41559304    14
CTC2_L_00440015-01
1 10056U 26684ZR  26075.70046296  .00000000  00000+0  00000-0 0  9991
2 10056  75.0000 168.0000 0000000   0.0000 168.0000 12.41559304    11
CTC2_L_00440015-02
1 10057U 22727WF  26075.70046296  .00000000  00000+0  00000-0 0  9996
2 10057  75.0000 168.0000 0000000   0.0000 258.0000 12.41559304    12
CTC2_L_00440015-03
1 10058U 26024JK  26075.70046296  .00000000  00000+0  00000-0 0  9991
2 10058  75.0000 168.0000 0000000   0.0000 348.0000 12.41559304    13
CTC2_L_00440015-04
1 10059U 22417JB  26075.70046296  .00000000  00000+0  00000-0 0  9994
2 10059  75.0000 168.0000 0000000   0.0000  78.0000 12.41559304    14
CTC2_L_00440016-01
1 10060U 24704JE  26075.70046296  .00000000  00000+0  00000-0 0  9997
2 10060  75.0000 180.0000 0000000   0.0000 180.0000 12.41559304    14
CTC2_L_00440016-02
1 10061U 25468SS  26075.70046296  .00000000  00000+0  00000-0 0  9996
2 10061  75.0000 180.0000 0000000   0.0000 270.0000 12.41559304    15
